0 FENGYUN 1C DEB
1 30242U 99025XB  13281.48739453  .00000664  00000-0  40102-3 0  7549
2 30242 099.0238 275.8670 0013209 050.1063 070.2676 14.10105967346150
0 FENGYUN 1C DEB
1 30242U 99025XB  13282.55172688  .00000756  00000-0  45287-3 0  7551
2 30242 099.0237 276.9346 0013161 047.3204 073.0291 14.10108476346302
0 FENGYUN 1C DEB
1 30242U 99025XB  13283.95758229  .00000921  00000-0  54622-3 0  7565
2 30242 099.0236 278.3448 0013099 043.6110 009.4680 14.10110248346502
0 FENGYUN 1C DEB
1 30242U 99025XB  13285.46927049  .00000736  00000-0  44180-3 0  7574
2 30242 099.0236 279.8611 0013036 039.5630 123.2032 14.10113788346713
0 FENGYUN 1C DEB
1 30242U 99025XB  13287.59077769  .00000752  00000-0  45076-3 0  7589
2 30242 099.0236 281.9889 0012974 033.9460 092.5064 14.10119467347010
0 FENGYUN 1C DEB
1 30242U 99025XB  13288.92497294  .00000694  00000-0  41780-3 0  7590
2 30242 099.0237 283.3271 0012900 030.2623 025.3920 14.10122965347205
0 FENGYUN 1C DEB
1 30242U 99025XB  13290.21676674  .00000723  00000-0  43434-3 0  7609
2 30242 099.0239 284.6227 0012852 026.8369 102.9093 14.10124629347387
0 FENGYUN 1C DEB
1 30242U 99025XB  13291.28159803  .00000791  00000-0  47263-3 0  7617
2 30242 099.0241 285.6907 0012779 023.8196 108.5031 14.10125567347532
0 FENGYUN 1C DEB
1 30242U 99025XB  13292.48723779  .00000942  00000-0  55813-3 0  7628
2 30242 099.0243 286.8999 0012718 020.5093 108.8080 14.10126754347706
0 FENGYUN 1C DEB
1 30242U 99025XB  13293.83302322  .00001119  00000-0  65802-3 0  7632
2 30242 099.0245 288.2497 0012649 016.8235 100.5471 14.10128347347899
0 FENGYUN 1C DEB
1 30242U 99025XB  13294.95577213  .00001167  00000-0  68487-3 0  7645
2 30242 099.0245 289.3759 0012593 013.7019 040.1140 14.10130772348052
